{
"type": "FeatureCollection",
"name": "flood_south",
"crs": { "type": "name", "properties": { "name": "urn:ogc:def:crs:EPSG::32641" } },
"features": [
{ "type": "Feature", "properties": { }, "geometry": { "type": "MultiPolygon", "coordinates": [ [ [ [ 652616.992105276673101, 6338491.026721021160483 ], [ 652622.430603599990718, 6338491.026721021160483 ], [ 652622.430603599990718, 6338463.573977033607662 ], [ 652595.238111983169802, 6338463.573977033607662 ], [ 652595.238111983169802, 6338469.064525831490755 ], [ 652589.799613659852184, 6338469.064525831490755 ], [ 652589.799613659852184, 6338474.555074628442526 ], [ 652584.361115336418152, 6338474.555074628442526 ], [ 652584.361115336418152, 6338480.045623426325619 ], [ 652578.922617013100535, 6338480.045623426325619 ], [ 652578.922617013100535, 6338507.498367412947118 ], [ 652606.115108629921451, 6338507.498367412947118 ], [ 652606.115108629921451, 6338502.007818615995347 ], [ 652611.553606953239068, 6338502.007818615995347 ], [ 652611.553606953239068, 6338496.517269818112254 ], [ 652616.992105276673101, 6338496.517269818112254 ], [ 652616.992105276673101, 6338491.026721021160483 ] ] ], [ [ [ 652600.676610306487419, 6338567.89440418407321 ], [ 652600.676610306487419, 6338562.403855387121439 ], [ 652573.484118689666502, 6338562.403855387121439 ], [ 652573.484118689666502, 6338567.89440418407321 ], [ 652568.045620366348885, 6338567.89440418407321 ], [ 652568.045620366348885, 6338611.818794563412666 ], [ 652573.484118689666502, 6338611.818794563412666 ], [ 652573.484118689666502, 6338617.309343360364437 ], [ 652578.922617013100535, 6338617.309343360364437 ], [ 652578.922617013100535, 6338622.799892157316208 ], [ 652589.799613659852184, 6338622.799892157316208 ], [ 652589.799613659852184, 6338628.290440955199301 ], [ 652616.992105276673101, 6338628.290440955199301 ], [ 652616.992105276673101, 6338600.837696968577802 ], [ 652611.553606953239068, 6338600.837696968577802 ], [ 652611.553606953239068, 6338589.856599373742938 ], [ 652606.115108629921451, 6338589.856599373742938 ], [ 652606.115108629921451, 6338567.89440418407321 ], [ 652600.676610306487419, 6338567.89440418407321 ] ] ], [ [ [ 652655.061593540129252, 6338847.912392850033939 ], [ 652655.061593540129252, 6338842.421844053082168 ], [ 652665.938590186880901, 6338842.421844053082168 ], [ 652665.938590186880901, 6338836.931295255199075 ], [ 652671.377088510314934, 6338836.931295255199075 ], [ 652671.377088510314934, 6338814.969100065529346 ], [ 652676.815586833632551, 6338814.969100065529346 ], [ 652676.815586833632551, 6338820.45964886341244 ], [ 652687.692583480384201, 6338820.45964886341244 ], [ 652687.692583480384201, 6338825.950197660364211 ], [ 652720.323573420522735, 6338825.950197660364211 ], [ 652720.323573420522735, 6338798.497453673742712 ], [ 652714.885075097205117, 6338798.497453673742712 ], [ 652714.885075097205117, 6338782.025807281956077 ], [ 652709.446576773771085, 6338782.025807281956077 ], [ 652709.446576773771085, 6338776.535258484072983 ], [ 652698.56958012713585, 6338776.535258484072983 ], [ 652698.56958012713585, 6338765.554160889238119 ], [ 652693.131081803701818, 6338765.554160889238119 ], [ 652693.131081803701818, 6338754.573063294403255 ], [ 652687.692583480384201, 6338754.573063294403255 ], [ 652687.692583480384201, 6338749.082514497451484 ], [ 652676.815586833632551, 6338749.082514497451484 ], [ 652676.815586833632551, 6338743.591965699568391 ], [ 652665.938590186880901, 6338743.591965699568391 ], [ 652665.938590186880901, 6338727.120319307781756 ], [ 652633.307600246742368, 6338727.120319307781756 ], [ 652633.307600246742368, 6338754.573063294403255 ], [ 652638.746098570059985, 6338754.573063294403255 ], [ 652638.746098570059985, 6338765.554160889238119 ], [ 652644.184596893494017, 6338765.554160889238119 ], [ 652644.184596893494017, 6338771.044709687121212 ], [ 652649.623095216811635, 6338771.044709687121212 ], [ 652649.623095216811635, 6338782.025807281956077 ], [ 652655.061593540129252, 6338782.025807281956077 ], [ 652655.061593540129252, 6338787.516356078907847 ], [ 652660.500091863563284, 6338787.516356078907847 ], [ 652660.500091863563284, 6338803.988002470694482 ], [ 652644.184596893494017, 6338803.988002470694482 ], [ 652644.184596893494017, 6338809.478551268577576 ], [ 652595.238111983169802, 6338809.478551268577576 ], [ 652595.238111983169802, 6338836.931295255199075 ], [ 652600.676610306487419, 6338836.931295255199075 ], [ 652600.676610306487419, 6338842.421844053082168 ], [ 652606.115108629921451, 6338842.421844053082168 ], [ 652606.115108629921451, 6338853.402941647917032 ], [ 652611.553606953239068, 6338853.402941647917032 ], [ 652611.553606953239068, 6338864.384039241820574 ], [ 652638.746098570059985, 6338864.384039241820574 ], [ 652638.746098570059985, 6338858.893490444868803 ], [ 652644.184596893494017, 6338858.893490444868803 ], [ 652644.184596893494017, 6338853.402941647917032 ], [ 652649.623095216811635, 6338853.402941647917032 ], [ 652649.623095216811635, 6338847.912392850033939 ], [ 652655.061593540129252, 6338847.912392850033939 ] ] ], [ [ [ 652562.607122043031268, 6338771.044709687121212 ], [ 652524.537633779458702, 6338771.044709687121212 ], [ 652524.537633779458702, 6338798.497453673742712 ], [ 652540.853128749527968, 6338798.497453673742712 ], [ 652540.853128749527968, 6338803.988002470694482 ], [ 652535.414630426210351, 6338803.988002470694482 ], [ 652535.414630426210351, 6338831.440746458247304 ], [ 652540.853128749527968, 6338831.440746458247304 ], [ 652540.853128749527968, 6338836.931295255199075 ], [ 652584.361115336418152, 6338836.931295255199075 ], [ 652584.361115336418152, 6338793.006904876790941 ], [ 652578.922617013100535, 6338793.006904876790941 ], [ 652578.922617013100535, 6338782.025807281956077 ], [ 652562.607122043031268, 6338782.025807281956077 ], [ 652562.607122043031268, 6338771.044709687121212 ] ] ], [ [ [ 652448.398657252313569, 6338628.290440955199301 ], [ 652442.960158928995952, 6338628.290440955199301 ], [ 652442.960158928995952, 6338655.7431849418208 ], [ 652475.591148869134486, 6338655.7431849418208 ], [ 652475.591148869134486, 6338650.25263614486903 ], [ 652486.468145515886135, 6338650.25263614486903 ], [ 652486.468145515886135, 6338644.762087346985936 ], [ 652508.222138809389435, 6338644.762087346985936 ], [ 652508.222138809389435, 6338633.780989752151072 ], [ 652513.660637132707052, 6338633.780989752151072 ], [ 652513.660637132707052, 6338606.328245765529573 ], [ 652524.537633779458702, 6338606.328245765529573 ], [ 652524.537633779458702, 6338600.837696968577802 ], [ 652529.976132102776319, 6338600.837696968577802 ], [ 652529.976132102776319, 6338595.347148170694709 ], [ 652535.414630426210351, 6338595.347148170694709 ], [ 652535.414630426210351, 6338551.422757792286575 ], [ 652519.099135456024669, 6338551.422757792286575 ], [ 652519.099135456024669, 6338529.460562602616847 ], [ 652513.660637132707052, 6338529.460562602616847 ], [ 652513.660637132707052, 6338523.970013804733753 ], [ 652497.345142162637785, 6338523.970013804733753 ], [ 652497.345142162637785, 6338518.479465007781982 ], [ 652491.906643839203753, 6338518.479465007781982 ], [ 652491.906643839203753, 6338512.988916209898889 ], [ 652486.468145515886135, 6338512.988916209898889 ], [ 652486.468145515886135, 6338507.498367412947118 ], [ 652481.029647192568518, 6338507.498367412947118 ], [ 652481.029647192568518, 6338491.026721021160483 ], [ 652475.591148869134486, 6338491.026721021160483 ], [ 652475.591148869134486, 6338480.045623426325619 ], [ 652470.152650545816869, 6338480.045623426325619 ], [ 652470.152650545816869, 6338469.064525831490755 ], [ 652464.714152222382836, 6338469.064525831490755 ], [ 652464.714152222382836, 6338463.573977033607662 ], [ 652437.52166060556192, 6338463.573977033607662 ], [ 652437.52166060556192, 6338474.555074628442526 ], [ 652432.083162282244302, 6338474.555074628442526 ], [ 652432.083162282244302, 6338480.045623426325619 ], [ 652421.206165635492653, 6338480.045623426325619 ], [ 652421.206165635492653, 6338496.517269818112254 ], [ 652404.890670665423386, 6338496.517269818112254 ], [ 652404.890670665423386, 6338523.970013804733753 ], [ 652399.452172342105769, 6338523.970013804733753 ], [ 652399.452172342105769, 6338507.498367412947118 ], [ 652372.259680725284852, 6338507.498367412947118 ], [ 652372.259680725284852, 6338534.951111399568617 ], [ 652394.013674018671736, 6338534.951111399568617 ], [ 652394.013674018671736, 6338540.441660197451711 ], [ 652383.136677371920086, 6338540.441660197451711 ], [ 652383.136677371920086, 6338562.403855387121439 ], [ 652328.751694138278253, 6338562.403855387121439 ], [ 652328.751694138278253, 6338573.384952981024981 ], [ 652323.313195814960636, 6338573.384952981024981 ], [ 652323.313195814960636, 6338578.875501778908074 ], [ 652317.874697491526604, 6338578.875501778908074 ], [ 652317.874697491526604, 6338584.366050575859845 ], [ 652312.436199168208987, 6338584.366050575859845 ], [ 652312.436199168208987, 6338589.856599373742938 ], [ 652306.997700844891369, 6338589.856599373742938 ], [ 652306.997700844891369, 6338595.347148170694709 ], [ 652301.559202521457337, 6338595.347148170694709 ], [ 652301.559202521457337, 6338600.837696968577802 ], [ 652296.12070419813972, 6338600.837696968577802 ], [ 652296.12070419813972, 6338606.328245765529573 ], [ 652290.682205874705687, 6338606.328245765529573 ], [ 652290.682205874705687, 6338628.290440955199301 ], [ 652268.928212581318803, 6338628.290440955199301 ], [ 652268.928212581318803, 6338633.780989752151072 ], [ 652263.489714257884771, 6338633.780989752151072 ], [ 652263.489714257884771, 6338639.271538550034165 ], [ 652252.612717611249536, 6338639.271538550034165 ], [ 652252.612717611249536, 6338644.762087346985936 ], [ 652236.297222641063854, 6338644.762087346985936 ], [ 652236.297222641063854, 6338650.25263614486903 ], [ 652225.42022599442862, 6338650.25263614486903 ], [ 652225.42022599442862, 6338661.233733739703894 ], [ 652219.981727670994587, 6338661.233733739703894 ], [ 652219.981727670994587, 6338666.724282536655664 ], [ 652214.54322934767697, 6338666.724282536655664 ], [ 652214.54322934767697, 6338683.195928928442299 ], [ 652209.104731024242938, 6338683.195928928442299 ], [ 652209.104731024242938, 6338694.177026523277164 ], [ 652203.66623270092532, 6338694.177026523277164 ], [ 652203.66623270092532, 6338705.158124118112028 ], [ 652198.227734377607703, 6338705.158124118112028 ], [ 652198.227734377607703, 6338716.139221712946892 ], [ 652192.789236054173671, 6338716.139221712946892 ], [ 652192.789236054173671, 6338732.610868105664849 ], [ 652187.350737730856054, 6338732.610868105664849 ], [ 652187.350737730856054, 6338743.591965699568391 ], [ 652181.912239407422021, 6338743.591965699568391 ], [ 652181.912239407422021, 6338754.573063294403255 ], [ 652176.473741084104404, 6338754.573063294403255 ], [ 652176.473741084104404, 6338765.554160889238119 ], [ 652171.035242760786787, 6338765.554160889238119 ], [ 652171.035242760786787, 6338771.044709687121212 ], [ 652165.596744437352754, 6338771.044709687121212 ], [ 652165.596744437352754, 6338793.006904876790941 ], [ 652160.158246114035137, 6338793.006904876790941 ], [ 652160.158246114035137, 6338803.988002470694482 ], [ 652154.719747790601104, 6338803.988002470694482 ], [ 652154.719747790601104, 6338814.969100065529346 ], [ 652149.281249467283487, 6338814.969100065529346 ], [ 652149.281249467283487, 6338825.950197660364211 ], [ 652143.84275114396587, 6338825.950197660364211 ], [ 652143.84275114396587, 6338831.440746458247304 ], [ 652138.404252820531838, 6338831.440746458247304 ], [ 652138.404252820531838, 6338853.402941647917032 ], [ 652132.96575449721422, 6338853.402941647917032 ], [ 652132.96575449721422, 6338880.855685634538531 ], [ 652160.158246114035137, 6338880.855685634538531 ], [ 652160.158246114035137, 6338869.874588039703667 ], [ 652165.596744437352754, 6338869.874588039703667 ], [ 652165.596744437352754, 6338886.346234431490302 ], [ 652160.158246114035137, 6338886.346234431490302 ], [ 652160.158246114035137, 6338902.81788082420826 ], [ 652143.84275114396587, 6338902.81788082420826 ], [ 652143.84275114396587, 6338919.289527215994895 ], [ 652138.404252820531838, 6338919.289527215994895 ], [ 652138.404252820531838, 6338935.761173607781529 ], [ 652132.96575449721422, 6338935.761173607781529 ], [ 652132.96575449721422, 6338941.251722405664623 ], [ 652122.088757850462571, 6338941.251722405664623 ], [ 652122.088757850462571, 6338968.704466392286122 ], [ 652116.650259527144954, 6338968.704466392286122 ], [ 652116.650259527144954, 6338974.195015189237893 ], [ 652111.211761203710921, 6338974.195015189237893 ], [ 652111.211761203710921, 6338952.232820000499487 ], [ 652084.019269586890005, 6338952.232820000499487 ], [ 652084.019269586890005, 6338957.723368797451258 ], [ 652078.580771263572387, 6338957.723368797451258 ], [ 652078.580771263572387, 6338968.704466392286122 ], [ 652073.142272940138355, 6338968.704466392286122 ], [ 652073.142272940138355, 6338974.195015189237893 ], [ 652067.703774616820738, 6338974.195015189237893 ], [ 652067.703774616820738, 6338985.176112784072757 ], [ 652062.265276293503121, 6338985.176112784072757 ], [ 652062.265276293503121, 6338990.66666158195585 ], [ 652056.826777970069088, 6338990.66666158195585 ], [ 652056.826777970069088, 6339001.647759176790714 ], [ 652051.388279646751471, 6339001.647759176790714 ], [ 652051.388279646751471, 6339018.119405568577349 ], [ 652045.949781323317438, 6339018.119405568577349 ], [ 652045.949781323317438, 6339034.591051960363984 ], [ 652040.511283, 6339034.591051960363984 ], [ 652040.511283, 6339078.515442339703441 ], [ 652062.265276293503121, 6339078.515442339703441 ], [ 652062.265276293503121, 6339100.477637529373169 ], [ 652056.826777970069088, 6339100.477637529373169 ], [ 652056.826777970069088, 6339105.96818632632494 ], [ 652045.949781323317438, 6339105.96818632632494 ], [ 652045.949781323317438, 6339121.218276836909354 ], [ 652176.473741084104404, 6339068.097742018289864 ], [ 652176.473741084104404, 6339056.553247150033712 ], [ 652181.912239407422021, 6339056.553247150033712 ], [ 652181.912239407422021, 6339040.081600758247077 ], [ 652192.789236054173671, 6339040.081600758247077 ], [ 652192.789236054173671, 6339034.591051960363984 ], [ 652198.227734377607703, 6339034.591051960363984 ], [ 652198.227734377607703, 6339012.628856771625578 ], [ 652203.66623270092532, 6339012.628856771625578 ], [ 652203.66623270092532, 6338990.66666158195585 ], [ 652209.104731024242938, 6338990.66666158195585 ], [ 652209.104731024242938, 6338985.176112784072757 ], [ 652214.54322934767697, 6338985.176112784072757 ], [ 652214.54322934767697, 6338979.685563987120986 ], [ 652219.981727670994587, 6338979.685563987120986 ], [ 652219.981727670994587, 6338957.723368797451258 ], [ 652225.42022599442862, 6338957.723368797451258 ], [ 652225.42022599442862, 6338946.742271202616394 ], [ 652230.858724317746237, 6338946.742271202616394 ], [ 652230.858724317746237, 6338941.251722405664623 ], [ 652236.297222641063854, 6338941.251722405664623 ], [ 652236.297222641063854, 6338924.780076012946665 ], [ 652241.735720964497887, 6338924.780076012946665 ], [ 652241.735720964497887, 6338919.289527215994895 ], [ 652247.174219287815504, 6338919.289527215994895 ], [ 652247.174219287815504, 6338886.346234431490302 ], [ 652258.051215934567153, 6338886.346234431490302 ], [ 652258.051215934567153, 6338869.874588039703667 ], [ 652274.36671090463642, 6338869.874588039703667 ], [ 652274.36671090463642, 6338858.893490444868803 ], [ 652279.805209228070453, 6338858.893490444868803 ], [ 652279.805209228070453, 6338847.912392850033939 ], [ 652285.24370755138807, 6338847.912392850033939 ], [ 652285.24370755138807, 6338836.931295255199075 ], [ 652290.682205874705687, 6338836.931295255199075 ], [ 652290.682205874705687, 6338825.950197660364211 ], [ 652296.12070419813972, 6338825.950197660364211 ], [ 652296.12070419813972, 6338814.969100065529346 ], [ 652301.559202521457337, 6338814.969100065529346 ], [ 652301.559202521457337, 6338798.497453673742712 ], [ 652312.436199168208987, 6338798.497453673742712 ], [ 652312.436199168208987, 6338787.516356078907847 ], [ 652317.874697491526604, 6338787.516356078907847 ], [ 652317.874697491526604, 6338771.044709687121212 ], [ 652323.313195814960636, 6338771.044709687121212 ], [ 652323.313195814960636, 6338765.554160889238119 ], [ 652328.751694138278253, 6338765.554160889238119 ], [ 652328.751694138278253, 6338760.063612092286348 ], [ 652355.94418575509917, 6338760.063612092286348 ], [ 652355.94418575509917, 6338749.082514497451484 ], [ 652361.382684078533202, 6338749.082514497451484 ], [ 652361.382684078533202, 6338776.535258484072983 ], [ 652410.329168988741003, 6338776.535258484072983 ], [ 652410.329168988741003, 6338760.063612092286348 ], [ 652415.767667312175035, 6338760.063612092286348 ], [ 652415.767667312175035, 6338749.082514497451484 ], [ 652421.206165635492653, 6338749.082514497451484 ], [ 652421.206165635492653, 6338738.10141690261662 ], [ 652426.644663958926685, 6338738.10141690261662 ], [ 652426.644663958926685, 6338727.120319307781756 ], [ 652432.083162282244302, 6338727.120319307781756 ], [ 652432.083162282244302, 6338721.629770510829985 ], [ 652437.52166060556192, 6338721.629770510829985 ], [ 652437.52166060556192, 6338710.648672915995121 ], [ 652442.960158928995952, 6338710.648672915995121 ], [ 652442.960158928995952, 6338694.177026523277164 ], [ 652448.398657252313569, 6338694.177026523277164 ], [ 652448.398657252313569, 6338661.233733739703894 ], [ 652421.206165635492653, 6338661.233733739703894 ], [ 652421.206165635492653, 6338650.25263614486903 ], [ 652426.644663958926685, 6338650.25263614486903 ], [ 652426.644663958926685, 6338639.271538550034165 ], [ 652437.52166060556192, 6338639.271538550034165 ], [ 652437.52166060556192, 6338622.799892157316208 ], [ 652448.398657252313569, 6338622.799892157316208 ], [ 652448.398657252313569, 6338628.290440955199301 ] ], [ [ 652421.206165635492653, 6338672.214831334538758 ], [ 652415.767667312175035, 6338672.214831334538758 ], [ 652415.767667312175035, 6338661.233733739703894 ], [ 652421.206165635492653, 6338661.233733739703894 ], [ 652421.206165635492653, 6338672.214831334538758 ] ], [ [ 652067.703774616820738, 6339056.553247150033712 ], [ 652078.580771263572387, 6339056.553247150033712 ], [ 652078.580771263572387, 6339062.043795947916806 ], [ 652073.142272940138355, 6339062.043795947916806 ], [ 652073.142272940138355, 6339073.02489354275167 ], [ 652067.703774616820738, 6339073.02489354275167 ], [ 652067.703774616820738, 6339056.553247150033712 ] ], [ [ 652084.019269586890005, 6339051.062698353081942 ], [ 652078.580771263572387, 6339051.062698353081942 ], [ 652078.580771263572387, 6339040.081600758247077 ], [ 652084.019269586890005, 6339040.081600758247077 ], [ 652084.019269586890005, 6339051.062698353081942 ] ], [ [ 652089.457767910324037, 6339007.138307973742485 ], [ 652094.896266233641654, 6339007.138307973742485 ], [ 652094.896266233641654, 6338996.157210378907621 ], [ 652100.334764556959271, 6338996.157210378907621 ], [ 652100.334764556959271, 6339012.628856771625578 ], [ 652089.457767910324037, 6339012.628856771625578 ], [ 652089.457767910324037, 6339007.138307973742485 ] ], [ [ 652165.596744437352754, 6338858.893490444868803 ], [ 652171.035242760786787, 6338858.893490444868803 ], [ 652171.035242760786787, 6338864.384039241820574 ], [ 652165.596744437352754, 6338864.384039241820574 ], [ 652165.596744437352754, 6338858.893490444868803 ] ], [ [ 652171.035242760786787, 6338853.402941647917032 ], [ 652176.473741084104404, 6338853.402941647917032 ], [ 652176.473741084104404, 6338836.931295255199075 ], [ 652181.912239407422021, 6338836.931295255199075 ], [ 652181.912239407422021, 6338858.893490444868803 ], [ 652171.035242760786787, 6338858.893490444868803 ], [ 652171.035242760786787, 6338853.402941647917032 ] ], [ [ 652198.227734377607703, 6338820.45964886341244 ], [ 652187.350737730856054, 6338820.45964886341244 ], [ 652187.350737730856054, 6338814.969100065529346 ], [ 652192.789236054173671, 6338814.969100065529346 ], [ 652192.789236054173671, 6338809.478551268577576 ], [ 652198.227734377607703, 6338809.478551268577576 ], [ 652198.227734377607703, 6338820.45964886341244 ] ], [ [ 652198.227734377607703, 6338787.516356078907847 ], [ 652203.66623270092532, 6338787.516356078907847 ], [ 652203.66623270092532, 6338782.025807281956077 ], [ 652209.104731024242938, 6338782.025807281956077 ], [ 652209.104731024242938, 6338765.554160889238119 ], [ 652214.54322934767697, 6338765.554160889238119 ], [ 652214.54322934767697, 6338760.063612092286348 ], [ 652219.981727670994587, 6338760.063612092286348 ], [ 652219.981727670994587, 6338782.025807281956077 ], [ 652214.54322934767697, 6338782.025807281956077 ], [ 652214.54322934767697, 6338793.006904876790941 ], [ 652203.66623270092532, 6338793.006904876790941 ], [ 652203.66623270092532, 6338809.478551268577576 ], [ 652198.227734377607703, 6338809.478551268577576 ], [ 652198.227734377607703, 6338787.516356078907847 ] ], [ [ 652225.42022599442862, 6338727.120319307781756 ], [ 652230.858724317746237, 6338727.120319307781756 ], [ 652230.858724317746237, 6338721.629770510829985 ], [ 652236.297222641063854, 6338721.629770510829985 ], [ 652236.297222641063854, 6338743.591965699568391 ], [ 652225.42022599442862, 6338743.591965699568391 ], [ 652225.42022599442862, 6338749.082514497451484 ], [ 652219.981727670994587, 6338749.082514497451484 ], [ 652219.981727670994587, 6338738.10141690261662 ], [ 652225.42022599442862, 6338738.10141690261662 ], [ 652225.42022599442862, 6338727.120319307781756 ] ], [ [ 652236.297222641063854, 6338705.158124118112028 ], [ 652241.735720964497887, 6338705.158124118112028 ], [ 652241.735720964497887, 6338721.629770510829985 ], [ 652236.297222641063854, 6338721.629770510829985 ], [ 652236.297222641063854, 6338705.158124118112028 ] ], [ [ 652366.82118240185082, 6338721.629770510829985 ], [ 652377.698179048602469, 6338721.629770510829985 ], [ 652377.698179048602469, 6338727.120319307781756 ], [ 652372.259680725284852, 6338727.120319307781756 ], [ 652372.259680725284852, 6338738.10141690261662 ], [ 652361.382684078533202, 6338738.10141690261662 ], [ 652361.382684078533202, 6338732.610868105664849 ], [ 652366.82118240185082, 6338732.610868105664849 ], [ 652366.82118240185082, 6338721.629770510829985 ] ], [ [ 652377.698179048602469, 6338705.158124118112028 ], [ 652383.136677371920086, 6338705.158124118112028 ], [ 652383.136677371920086, 6338699.667575321160257 ], [ 652394.013674018671736, 6338699.667575321160257 ], [ 652394.013674018671736, 6338705.158124118112028 ], [ 652388.575175695354119, 6338705.158124118112028 ], [ 652388.575175695354119, 6338710.648672915995121 ], [ 652383.136677371920086, 6338710.648672915995121 ], [ 652383.136677371920086, 6338721.629770510829985 ], [ 652377.698179048602469, 6338721.629770510829985 ], [ 652377.698179048602469, 6338705.158124118112028 ] ], [ [ 652399.452172342105769, 6338677.705380131490529 ], [ 652410.329168988741003, 6338677.705380131490529 ], [ 652410.329168988741003, 6338683.195928928442299 ], [ 652404.890670665423386, 6338683.195928928442299 ], [ 652404.890670665423386, 6338688.686477726325393 ], [ 652399.452172342105769, 6338688.686477726325393 ], [ 652399.452172342105769, 6338677.705380131490529 ] ], [ [ 652301.559202521457337, 6338655.7431849418208 ], [ 652296.12070419813972, 6338655.7431849418208 ], [ 652296.12070419813972, 6338633.780989752151072 ], [ 652301.559202521457337, 6338633.780989752151072 ], [ 652301.559202521457337, 6338639.271538550034165 ], [ 652306.997700844891369, 6338639.271538550034165 ], [ 652306.997700844891369, 6338644.762087346985936 ], [ 652301.559202521457337, 6338644.762087346985936 ], [ 652301.559202521457337, 6338655.7431849418208 ] ], [ [ 652361.382684078533202, 6338617.309343360364437 ], [ 652355.94418575509917, 6338617.309343360364437 ], [ 652355.94418575509917, 6338611.818794563412666 ], [ 652361.382684078533202, 6338611.818794563412666 ], [ 652361.382684078533202, 6338617.309343360364437 ] ], [ [ 652459.275653899065219, 6338600.837696968577802 ], [ 652464.714152222382836, 6338600.837696968577802 ], [ 652464.714152222382836, 6338611.818794563412666 ], [ 652459.275653899065219, 6338611.818794563412666 ], [ 652459.275653899065219, 6338600.837696968577802 ] ], [ [ 652464.714152222382836, 6338595.347148170694709 ], [ 652470.152650545816869, 6338595.347148170694709 ], [ 652470.152650545816869, 6338600.837696968577802 ], [ 652464.714152222382836, 6338600.837696968577802 ], [ 652464.714152222382836, 6338595.347148170694709 ] ], [ [ 652475.591148869134486, 6338584.366050575859845 ], [ 652481.029647192568518, 6338584.366050575859845 ], [ 652481.029647192568518, 6338589.856599373742938 ], [ 652475.591148869134486, 6338589.856599373742938 ], [ 652475.591148869134486, 6338584.366050575859845 ] ], [ [ 652481.029647192568518, 6338578.875501778908074 ], [ 652486.468145515886135, 6338578.875501778908074 ], [ 652486.468145515886135, 6338584.366050575859845 ], [ 652481.029647192568518, 6338584.366050575859845 ], [ 652481.029647192568518, 6338578.875501778908074 ] ] ], [ [ [ 652040.511283, 6339122.439832719042897 ], [ 652040.511283, 6339123.431632454507053 ], [ 652042.948262016987428, 6339122.439832719042897 ], [ 652040.511283, 6339122.439832719042897 ] ] ], [ [ [ 653666.622281685937196, 6338326.310257099568844 ], [ 653666.622281685937196, 6338282.385866720229387 ], [ 653672.060780009371229, 6338282.385866720229387 ], [ 653672.060780009371229, 6338271.404769126325846 ], [ 653677.499278332688846, 6338271.404769126325846 ], [ 653677.499278332688846, 6338238.461476341821253 ], [ 653672.060780009371229, 6338238.461476341821253 ], [ 653672.060780009371229, 6338205.518183557316661 ], [ 653633.991291745798662, 6338205.518183557316661 ], [ 653633.991291745798662, 6338227.480378746986389 ], [ 653628.55279342236463, 6338227.480378746986389 ], [ 653628.55279342236463, 6338287.876415518112481 ], [ 653623.114295099047013, 6338287.876415518112481 ], [ 653623.114295099047013, 6338392.196842667646706 ], [ 653650.306786715867929, 6338392.196842667646706 ], [ 653650.306786715867929, 6338381.215745073743165 ], [ 653655.745285039185546, 6338381.215745073743165 ], [ 653655.745285039185546, 6338337.291354694403708 ], [ 653661.183783362619579, 6338337.291354694403708 ], [ 653661.183783362619579, 6338326.310257099568844 ], [ 653666.622281685937196, 6338326.310257099568844 ] ] ], [ [ [ 654145.210134142078459, 6338254.933122733607888 ], [ 654145.210134142078459, 6338260.423671531490982 ], [ 654139.771635818644427, 6338260.423671531490982 ], [ 654139.771635818644427, 6338269.076364123262465 ], [ 654174.523391920374706, 6338254.933122733607888 ], [ 654145.210134142078459, 6338254.933122733607888 ] ] ], [ [ [ 654128.894639171892777, 6338271.404769126325846 ], [ 654118.017642525257543, 6338271.404769126325846 ], [ 654118.017642525257543, 6338265.914220328442752 ], [ 654112.57914420182351, 6338265.914220328442752 ], [ 654112.57914420182351, 6338260.423671531490982 ], [ 654107.140645878505893, 6338260.423671531490982 ], [ 654107.140645878505893, 6338254.933122733607888 ], [ 654101.702147555071861, 6338254.933122733607888 ], [ 654101.702147555071861, 6338249.442573936656117 ], [ 654069.071157614933327, 6338249.442573936656117 ], [ 654069.071157614933327, 6338254.933122733607888 ], [ 654036.440167674678378, 6338254.933122733607888 ], [ 654036.440167674678378, 6338243.952025138773024 ], [ 654003.809177734539844, 6338243.952025138773024 ], [ 654003.809177734539844, 6338249.442573936656117 ], [ 653998.370679411222227, 6338249.442573936656117 ], [ 653998.370679411222227, 6338265.914220328442752 ], [ 653992.932181087788194, 6338265.914220328442752 ], [ 653992.932181087788194, 6338271.404769126325846 ], [ 653987.493682764470577, 6338271.404769126325846 ], [ 653987.493682764470577, 6338276.895317923277617 ], [ 653982.055184441036545, 6338276.895317923277617 ], [ 653982.055184441036545, 6338304.348061909899116 ], [ 653992.932181087788194, 6338304.348061909899116 ], [ 653992.932181087788194, 6338309.838610707782209 ], [ 654039.613573571084999, 6338309.838610707782209 ], [ 654128.894639171892777, 6338273.503075357526541 ], [ 654128.894639171892777, 6338271.404769126325846 ] ] ], [ [ [ 652589.799613659852184, 6338463.573977033607662 ], [ 652589.799613659852184, 6338458.083428236655891 ], [ 652622.430603599990718, 6338458.083428236655891 ], [ 652622.430603599990718, 6338452.592879438772798 ], [ 652627.869101923308335, 6338452.592879438772798 ], [ 652627.869101923308335, 6338447.102330641821027 ], [ 652633.307600246742368, 6338447.102330641821027 ], [ 652633.307600246742368, 6338441.611781844869256 ], [ 652638.746098570059985, 6338441.611781844869256 ], [ 652638.746098570059985, 6338436.121233046986163 ], [ 652655.061593540129252, 6338436.121233046986163 ], [ 652655.061593540129252, 6338430.630684250034392 ], [ 652660.500091863563284, 6338430.630684250034392 ], [ 652660.500091863563284, 6338425.140135452151299 ], [ 652665.938590186880901, 6338425.140135452151299 ], [ 652665.938590186880901, 6338419.649586655199528 ], [ 652687.692583480384201, 6338419.649586655199528 ], [ 652687.692583480384201, 6338403.17794026248157 ], [ 652714.885075097205117, 6338403.17794026248157 ], [ 652714.885075097205117, 6338397.687391465529799 ], [ 652731.200570067274384, 6338397.687391465529799 ], [ 652731.200570067274384, 6338392.196842667646706 ], [ 652736.639068390592001, 6338392.196842667646706 ], [ 652736.639068390592001, 6338381.215745073743165 ], [ 652747.516065037343651, 6338381.215745073743165 ], [ 652747.516065037343651, 6338386.706293870694935 ], [ 652742.077566714026034, 6338386.706293870694935 ], [ 652742.077566714026034, 6338414.159037857316434 ], [ 652769.27005833084695, 6338414.159037857316434 ], [ 652769.27005833084695, 6338408.668489060364664 ], [ 652807.339546594419517, 6338408.668489060364664 ], [ 652807.339546594419517, 6338414.159037857316434 ], [ 652812.778044917737134, 6338414.159037857316434 ], [ 652812.778044917737134, 6338419.649586655199528 ], [ 652818.216543241054751, 6338419.649586655199528 ], [ 652818.216543241054751, 6338436.121233046986163 ], [ 652845.409034857875668, 6338436.121233046986163 ], [ 652845.409034857875668, 6338375.725196275860071 ], [ 652839.97053653455805, 6338375.725196275860071 ], [ 652839.97053653455805, 6338370.2346474789083 ], [ 652861.72452982806135, 6338370.2346474789083 ], [ 652861.72452982806135, 6338364.744098681025207 ], [ 652867.163028151378967, 6338364.744098681025207 ], [ 652867.163028151378967, 6338337.291354694403708 ], [ 652861.72452982806135, 6338337.291354694403708 ], [ 652861.72452982806135, 6338331.800805897451937 ], [ 652807.339546594419517, 6338331.800805897451937 ], [ 652807.339546594419517, 6338326.310257099568844 ], [ 652818.216543241054751, 6338326.310257099568844 ], [ 652818.216543241054751, 6338320.819708302617073 ], [ 652856.286031504627317, 6338320.819708302617073 ], [ 652856.286031504627317, 6338326.310257099568844 ], [ 652921.5480113850208, 6338326.310257099568844 ], [ 652921.5480113850208, 6338320.819708302617073 ], [ 652926.986509708454832, 6338320.819708302617073 ], [ 652926.986509708454832, 6338315.32915950473398 ], [ 652943.302004678524099, 6338315.32915950473398 ], [ 652943.302004678524099, 6338304.348061909899116 ], [ 652948.740503001841716, 6338304.348061909899116 ], [ 652948.740503001841716, 6338298.857513112947345 ], [ 652965.055997971910983, 6338298.857513112947345 ], [ 652965.055997971910983, 6338293.366964315064251 ], [ 652975.932994618662633, 6338293.366964315064251 ], [ 652975.932994618662633, 6338287.876415518112481 ], [ 652981.371492942096666, 6338287.876415518112481 ], [ 652981.371492942096666, 6338293.366964315064251 ], [ 652992.2484895887319, 6338293.366964315064251 ], [ 652992.2484895887319, 6338298.857513112947345 ], [ 653019.440981205552816, 6338298.857513112947345 ], [ 653019.440981205552816, 6338293.366964315064251 ], [ 653024.879479528986849, 6338293.366964315064251 ], [ 653024.879479528986849, 6338282.385866720229387 ], [ 653030.317977852304466, 6338282.385866720229387 ], [ 653030.317977852304466, 6338276.895317923277617 ], [ 653041.194974499056116, 6338276.895317923277617 ], [ 653041.194974499056116, 6338282.385866720229387 ], [ 653068.387466115877032, 6338282.385866720229387 ], [ 653068.387466115877032, 6338276.895317923277617 ], [ 653073.825964439194649, 6338276.895317923277617 ], [ 653073.825964439194649, 6338271.404769126325846 ], [ 653084.702961085946299, 6338271.404769126325846 ], [ 653084.702961085946299, 6338276.895317923277617 ], [ 653139.087944319588132, 6338276.895317923277617 ], [ 653139.087944319588132, 6338249.442573936656117 ], [ 653144.526442643022165, 6338249.442573936656117 ], [ 653144.526442643022165, 6338260.423671531490982 ], [ 653193.472927553229965, 6338260.423671531490982 ], [ 653193.472927553229965, 6338254.933122733607888 ], [ 653204.349924199981615, 6338254.933122733607888 ], [ 653204.349924199981615, 6338249.442573936656117 ], [ 653253.296409110305831, 6338249.442573936656117 ], [ 653253.296409110305831, 6338254.933122733607888 ], [ 653280.488900727126747, 6338254.933122733607888 ], [ 653280.488900727126747, 6338243.952025138773024 ], [ 653285.927399050444365, 6338243.952025138773024 ], [ 653285.927399050444365, 6338249.442573936656117 ], [ 653291.365897373761982, 6338249.442573936656117 ], [ 653291.365897373761982, 6338254.933122733607888 ], [ 653329.435385637334548, 6338254.933122733607888 ], [ 653329.435385637334548, 6338260.423671531490982 ], [ 653334.87388396076858, 6338260.423671531490982 ], [ 653334.87388396076858, 6338265.914220328442752 ], [ 653362.066375577589497, 6338265.914220328442752 ], [ 653362.066375577589497, 6338260.423671531490982 ], [ 653367.504873900907114, 6338260.423671531490982 ], [ 653367.504873900907114, 6338254.933122733607888 ], [ 653400.135863841045648, 6338254.933122733607888 ], [ 653400.135863841045648, 6338260.423671531490982 ], [ 653411.012860487797298, 6338260.423671531490982 ], [ 653411.012860487797298, 6338265.914220328442752 ], [ 653449.082348751369864, 6338265.914220328442752 ], [ 653449.082348751369864, 6338271.404769126325846 ], [ 653465.397843721439131, 6338271.404769126325846 ], [ 653465.397843721439131, 6338276.895317923277617 ], [ 653525.221325278514996, 6338276.895317923277617 ], [ 653525.221325278514996, 6338282.385866720229387 ], [ 653546.97531857190188, 6338282.385866720229387 ], [ 653546.97531857190188, 6338287.876415518112481 ], [ 653552.413816895335913, 6338287.876415518112481 ], [ 653552.413816895335913, 6338293.366964315064251 ], [ 653557.85231521865353, 6338293.366964315064251 ], [ 653557.85231521865353, 6338298.857513112947345 ], [ 653563.290813542087562, 6338298.857513112947345 ], [ 653563.290813542087562, 6338304.348061909899116 ], [ 653574.167810188722797, 6338304.348061909899116 ], [ 653574.167810188722797, 6338309.838610707782209 ], [ 653585.044806835474446, 6338309.838610707782209 ], [ 653585.044806835474446, 6338315.32915950473398 ], [ 653617.675796775729395, 6338315.32915950473398 ], [ 653617.675796775729395, 6338282.385866720229387 ], [ 653623.114295099047013, 6338282.385866720229387 ], [ 653623.114295099047013, 6338221.989829949103296 ], [ 653574.167810188722797, 6338221.989829949103296 ], [ 653574.167810188722797, 6338216.499281152151525 ], [ 653557.85231521865353, 6338216.499281152151525 ], [ 653557.85231521865353, 6338211.008732355199754 ], [ 653546.97531857190188, 6338211.008732355199754 ], [ 653546.97531857190188, 6338205.518183557316661 ], [ 653519.782826955080964, 6338205.518183557316661 ], [ 653519.782826955080964, 6338200.02763476036489 ], [ 653438.205352104618214, 6338200.02763476036489 ], [ 653438.205352104618214, 6338189.046537165530026 ], [ 653405.57436216447968, 6338189.046537165530026 ], [ 653405.57436216447968, 6338183.555988367646933 ], [ 653307.681392343947664, 6338183.555988367646933 ], [ 653307.681392343947664, 6338178.065439570695162 ], [ 653280.488900727126747, 6338178.065439570695162 ], [ 653280.488900727126747, 6338183.555988367646933 ], [ 653269.611904080375098, 6338183.555988367646933 ], [ 653269.611904080375098, 6338178.065439570695162 ], [ 653166.280435936409049, 6338178.065439570695162 ], [ 653166.280435936409049, 6338183.555988367646933 ], [ 653106.456954379449598, 6338183.555988367646933 ], [ 653106.456954379449598, 6338189.046537165530026 ], [ 653101.018456056015566, 6338189.046537165530026 ], [ 653101.018456056015566, 6338183.555988367646933 ], [ 653057.510469469125383, 6338183.555988367646933 ], [ 653057.510469469125383, 6338189.046537165530026 ], [ 653046.633472822373733, 6338189.046537165530026 ], [ 653046.633472822373733, 6338194.537085962481797 ], [ 653008.563984558917582, 6338194.537085962481797 ], [ 653008.563984558917582, 6338200.02763476036489 ], [ 652954.179001325275749, 6338200.02763476036489 ], [ 652954.179001325275749, 6338205.518183557316661 ], [ 652916.109513061703183, 6338205.518183557316661 ], [ 652916.109513061703183, 6338216.499281152151525 ], [ 652905.232516414951533, 6338216.499281152151525 ], [ 652905.232516414951533, 6338221.989829949103296 ], [ 652845.409034857875668, 6338221.989829949103296 ], [ 652845.409034857875668, 6338232.97092754393816 ], [ 652834.532038211240433, 6338232.97092754393816 ], [ 652834.532038211240433, 6338238.461476341821253 ], [ 652812.778044917737134, 6338238.461476341821253 ], [ 652812.778044917737134, 6338243.952025138773024 ], [ 652785.585553300916217, 6338243.952025138773024 ], [ 652785.585553300916217, 6338249.442573936656117 ], [ 652780.1470549775986, 6338249.442573936656117 ], [ 652780.1470549775986, 6338254.933122733607888 ], [ 652774.708556654164568, 6338254.933122733607888 ], [ 652774.708556654164568, 6338260.423671531490982 ], [ 652747.516065037343651, 6338260.423671531490982 ], [ 652747.516065037343651, 6338265.914220328442752 ], [ 652731.200570067274384, 6338265.914220328442752 ], [ 652731.200570067274384, 6338276.895317923277617 ], [ 652720.323573420522735, 6338276.895317923277617 ], [ 652720.323573420522735, 6338282.385866720229387 ], [ 652693.131081803701818, 6338282.385866720229387 ], [ 652693.131081803701818, 6338287.876415518112481 ], [ 652682.254085156950168, 6338287.876415518112481 ], [ 652682.254085156950168, 6338293.366964315064251 ], [ 652676.815586833632551, 6338293.366964315064251 ], [ 652676.815586833632551, 6338298.857513112947345 ], [ 652660.500091863563284, 6338298.857513112947345 ], [ 652660.500091863563284, 6338304.348061909899116 ], [ 652644.184596893494017, 6338304.348061909899116 ], [ 652644.184596893494017, 6338315.32915950473398 ], [ 652638.746098570059985, 6338315.32915950473398 ], [ 652638.746098570059985, 6338320.819708302617073 ], [ 652622.430603599990718, 6338320.819708302617073 ], [ 652622.430603599990718, 6338326.310257099568844 ], [ 652616.992105276673101, 6338326.310257099568844 ], [ 652616.992105276673101, 6338331.800805897451937 ], [ 652611.553606953239068, 6338331.800805897451937 ], [ 652611.553606953239068, 6338337.291354694403708 ], [ 652600.676610306487419, 6338337.291354694403708 ], [ 652600.676610306487419, 6338342.781903491355479 ], [ 652595.238111983169802, 6338342.781903491355479 ], [ 652595.238111983169802, 6338348.272452289238572 ], [ 652584.361115336418152, 6338348.272452289238572 ], [ 652584.361115336418152, 6338359.253549884073436 ], [ 652573.484118689666502, 6338359.253549884073436 ], [ 652573.484118689666502, 6338364.744098681025207 ], [ 652562.607122043031268, 6338364.744098681025207 ], [ 652562.607122043031268, 6338375.725196275860071 ], [ 652557.168623719597235, 6338375.725196275860071 ], [ 652557.168623719597235, 6338381.215745073743165 ], [ 652540.853128749527968, 6338381.215745073743165 ], [ 652540.853128749527968, 6338403.17794026248157 ], [ 652519.099135456024669, 6338403.17794026248157 ], [ 652519.099135456024669, 6338414.159037857316434 ], [ 652513.660637132707052, 6338414.159037857316434 ], [ 652513.660637132707052, 6338419.649586655199528 ], [ 652502.783640485955402, 6338419.649586655199528 ], [ 652502.783640485955402, 6338452.592879438772798 ], [ 652513.660637132707052, 6338452.592879438772798 ], [ 652513.660637132707052, 6338458.083428236655891 ], [ 652519.099135456024669, 6338458.083428236655891 ], [ 652519.099135456024669, 6338480.045623426325619 ], [ 652535.414630426210351, 6338480.045623426325619 ], [ 652535.414630426210351, 6338485.53617222327739 ], [ 652562.607122043031268, 6338485.53617222327739 ], [ 652562.607122043031268, 6338480.045623426325619 ], [ 652578.922617013100535, 6338480.045623426325619 ], [ 652578.922617013100535, 6338474.555074628442526 ], [ 652584.361115336418152, 6338474.555074628442526 ], [ 652584.361115336418152, 6338463.573977033607662 ], [ 652589.799613659852184, 6338463.573977033607662 ] ], [ [ 652769.27005833084695, 6338359.253549884073436 ], [ 652791.024051624233834, 6338359.253549884073436 ], [ 652791.024051624233834, 6338364.744098681025207 ], [ 652785.585553300916217, 6338364.744098681025207 ], [ 652785.585553300916217, 6338370.2346474789083 ], [ 652774.708556654164568, 6338370.2346474789083 ], [ 652774.708556654164568, 6338375.725196275860071 ], [ 652763.831560007412918, 6338375.725196275860071 ], [ 652763.831560007412918, 6338381.215745073743165 ], [ 652752.954563360777684, 6338381.215745073743165 ], [ 652752.954563360777684, 6338375.725196275860071 ], [ 652758.393061684095301, 6338375.725196275860071 ], [ 652758.393061684095301, 6338370.2346474789083 ], [ 652763.831560007412918, 6338370.2346474789083 ], [ 652763.831560007412918, 6338364.744098681025207 ], [ 652769.27005833084695, 6338364.744098681025207 ], [ 652769.27005833084695, 6338359.253549884073436 ] ], [ [ 652801.901048270985484, 6338353.763001086190343 ], [ 652796.462549947667867, 6338353.763001086190343 ], [ 652796.462549947667867, 6338342.781903491355479 ], [ 652801.901048270985484, 6338342.781903491355479 ], [ 652801.901048270985484, 6338353.763001086190343 ] ] ], [ [ [ 653323.996887314016931, 6338364.744098681025207 ], [ 653323.996887314016931, 6338397.687391465529799 ], [ 653356.627877254155464, 6338397.687391465529799 ], [ 653356.627877254155464, 6338364.744098681025207 ], [ 653323.996887314016931, 6338364.744098681025207 ] ] ] ] } }
]
}
